*******************************************************************************
 Revised: Mar 12, 2021           Europa / (Jupiter)                         502

 SATELLITE PHYSICAL PROPERTIES:
  Mean radius (km)       = 1560     +- 0.5    Density (g cm^-3)= 3.013 +- 0.005
  GM   (km^3/s^2)        = 3202.7121+- 0.0054 Geometric Albedo = 0.67 +/- 0.03  

 SATELLITE ORBIT (at J2000.0 epoch, 2000-Jan-1.5):
  Semi-major axis, a (km) ~ 671,000           Orbital period   ~ 3.55 d
  Eccentricity, e         ~ 0              Rotational period   = Synchronous
  Inclination, i  (deg)   ~ 0.46
*******************************************************************************
 
 
*******************************************************************************
Ephemeris / WWW_USER Wed Apr  7 13:41:42 2021 Pasadena, USA      / Horizons
*******************************************************************************
Target body name: Europa (502)                    {source: jup365_merged}
Center body name: Jupiter (599)                   {source: jup365_merged}
Center-site name: BODY CENTER
*******************************************************************************
Start time      : A.D. 1986-Apr-24 12:00:00.0000 TDB
Stop  time      : A.D. 2013-Sep-09 12:00:00.0000 TDB
Step-size       : 144000 minutes
*******************************************************************************
Center geodetic : 0.00000000,0.00000000,0.0000000 {W-lon(deg),Lat(deg),Alt(km)}
Center cylindric: 0.00000000,0.00000000,0.0000000 {W-lon(deg),Dxy(km),Dz(km)}
Center radii    : 71492.0 x 71492.0 x 66854.0 km  {Equator, meridian, pole}    
Output units    : AU-D
Output type     : LT CORRECTED cartesian states
Output format   : 2 (position and velocity)
Reference frame : Ecliptic of J2000.0
*******************************************************************************
JDTDB
   X     Y     Z
   VX    VY    VZ
*******************************************************************************
$$SOE
2450245.000000000 = A.D. 1996-Jun-10 12:00:00.0000 TDB 
 X =-4.445700403569346E-03 Y =-5.138942269914378E-04 Z =-1.034657265884496E-04
 VX= 8.460680552498064E-04 VY=-7.905189811118716E-03 VZ=-2.206525223542687E-04
2450345.000000000 = A.D. 1996-Sep-18 12:00:00.0000 TDB 
 X =-2.077977203773712E-03 Y =-4.014234145416051E-03 Z =-1.599340885893780E-04
 VX= 7.006210957387058E-03 VY=-3.588280879832926E-03 VZ= 2.955660274693161E-05
2450445.000000000 = A.D. 1996-Dec-27 12:00:00.0000 TDB 
 X = 2.237689797481936E-03 Y =-3.841404398548617E-03 Z =-7.027050030155343E-05
 VX= 6.903737798434454E-03 VY= 4.048087906516807E-03 VZ= 2.513112609235074E-04
2450545.000000000 = A.D. 1997-Apr-06 12:00:00.0000 TDB 
 X = 4.500060787755417E-03 Y =-8.341444193991888E-05 Z = 8.180494210712065E-05
 VX= 2.118720332869854E-04 VY= 7.902400341125135E-03 VZ= 2.345597833373090E-04
2450645.000000000 = A.D. 1997-Jul-15 12:00:00.0000 TDB 
 X = 2.616812302575299E-03 Y = 3.663841658882974E-03 Z = 1.541459037761138E-04
 VX=-6.469468180343044E-03 VY= 4.538637624467574E-03 VZ= 1.253062890553361E-05
2450745.000000000 = A.D. 1997-Oct-23 12:00:00.0000 TDB 
 X =-1.752379252514704E-03 Y = 4.084226390416161E-03 Z = 8.573185156257642E-05
 VX=-7.365311004868227E-03 VY=-3.135903503612085E-03 VZ=-2.220853293651660E-04
2450845.000000000 = A.D. 1998-Jan-31 12:00:00.0000 TDB 
 X =-4.465108948181321E-03 Y = 7.010126213871392E-04 Z =-5.821706877625042E-05
 VX=-1.260125379229225E-03 VY=-7.771350438808880E-03 VZ=-2.437669086586677E-04
2450945.000000000 = A.D. 1998-May-11 12:00:00.0000 TDB 
 X =-3.062421126712817E-03 Y =-3.268297927712740E-03 Z =-1.449515684212637E-04
 VX= 5.849552667301377E-03 VY=-5.376252961811153E-03 VZ=-5.206959676339457E-05
2451045.000000000 = A.D. 1998-Aug-19 12:00:00.0000 TDB 
 X = 1.239162534107528E-03 Y =-4.281264486277281E-03 Z =-9.998031616169462E-05
 VX= 7.685942120884417E-03 VY= 2.160083137610795E-03 VZ= 1.886936966362330E-04
2451145.000000000 = A.D. 1998-Nov-27 12:00:00.0000 TDB 
 X = 4.325068909936568E-03 Y =-1.340435936625144E-03 Z = 3.260319662459102E-05
 VX= 2.324717213090064E-03 VY= 7.506759029471451E-03 VZ= 2.482802481254577E-04
2451245.000000000 = A.D. 1999-Mar-07 12:00:00.0000 TDB 
 X = 3.437734760558680E-03 Y = 2.836127869770884E-03 Z = 1.333185320979390E-04
 VX=-5.126245431212693E-03 VY= 6.120675506246724E-03 VZ= 9.005434482892635E-05
2451345.000000000 = A.D. 1999-Jun-15 12:00:00.0000 TDB 
 X =-6.938932304337929E-04 Y = 4.425011214225671E-03 Z = 1.127238479789541E-04
 VX=-7.859930429348801E-03 VY=-1.154500572661227E-03 VZ=-1.524414279282752E-04
2451445.000000000 = A.D. 1999-Sep-23 12:00:00.0000 TDB 
 X =-4.086493326725179E-03 Y = 1.933410450934857E-03 Z =-7.046778665319635E-06
 VX=-3.327836061659852E-03 VY=-7.133087813970650E-03 VZ=-2.476531455695971E-04
2451545.000000000 = A.D. 2000-Jan-01 12:00:00.0000 TDB 
 X =-3.751681080578113E-03 Y =-2.379792223202090E-03 Z =-1.200144461065922E-04
 VX= 4.309526250735344E-03 VY=-6.750870385011322E-03 VZ=-1.255043741526880E-04
2451645.000000000 = A.D. 2000-Apr-10 12:00:00.0000 TDB 
 X = 8.818675465501832E-05 Y =-4.502258707097384E-03 Z =-1.238335055419511E-04
 VX= 7.902311444212731E-03 VY= 8.455603589601357E-05 VZ= 1.126500052070285E-04
2451745.000000000 = A.D. 2000-Jul-19 12:00:00.0000 TDB 
 X = 3.764260480240983E-03 Y =-2.468348038526905E-03 Z =-1.781870628971288E-05
 VX= 4.279250256042380E-03 VY= 6.647827801308622E-03 VZ= 2.423092951309919E-04
2451845.000000000 = A.D. 2000-Oct-27 12:00:00.0000 TDB 
 X = 4.010629018594661E-03 Y = 1.918292853472669E-03 Z = 1.057358789121162E-04
 VX=-3.433610764592449E-03 VY= 7.229694123626137E-03 VZ= 1.566978117455599E-04
2451945.000000000 = A.D. 2001-Feb-04 12:00:00.0000 TDB 
 X = 5.404879016687053E-04 Y = 4.489001386166939E-03 Z = 1.321108052747839E-04
 VX=-7.809535341658756E-03 VY= 9.784869955829455E-04 VZ=-7.117498004400651E-05
2452045.000000000 = A.D. 2001-May-15 12:00:00.0000 TDB 
 X =-3.377508340111531E-03 Y = 2.938873748596106E-03 Z = 4.139669348856257E-05
 VX=-5.161708183649532E-03 VY=-6.043652385902393E-03 VZ=-2.320512925524258E-04
2452145.000000000 = A.D. 2001-Aug-23 12:00:00.0000 TDB 
 X =-4.232583087040150E-03 Y =-1.405235054263748E-03 Z =-8.927303259155487E-05
 VX= 2.460048177911944E-03 VY=-7.589850073079248E-03 VZ=-1.849229699649521E-04
2452245.000000000 = A.D. 2001-Dec-01 12:00:00.0000 TDB 
 X =-1.173041127913427E-03 Y =-4.369789618633911E-03 Z =-1.369137843567127E-04
 VX= 7.597610988335619E-03 VY=-2.033076459886773E-03 VZ= 2.818208543121124E-05
2452345.000000000 = A.D. 2002-Mar-11 12:00:00.0000 TDB 
 X = 2.972094627755735E-03 Y =-3.317897445364083E-03 Z =-6.231419455349727E-05
 VX= 5.919297695428355E-03 VY= 5.364383325354665E-03 VZ= 2.173251355724011E-04
2452445.000000000 = A.D. 2002-Jun-19 12:00:00.0000 TDB 
 X = 4.401882663769715E-03 Y = 8.581730981731856E-04 Z = 7.073347398878547E-05
 VX=-1.446702932362753E-03 VY= 7.802234090006751E-03 VZ= 2.086479233687885E-04
2452545.000000000 = A.D. 2002-Sep-27 12:00:00.0000 TDB 
 X = 1.785597170973101E-03 Y = 4.149843960133131E-03 Z = 1.379911903493506E-04
 VX=-7.254680890191228E-03 VY= 3.069643638387961E-03 VZ= 1.593614881318754E-05
2452645.000000000 = A.D. 2003-Jan-05 12:00:00.0000 TDB 
 X =-2.531606918377340E-03 Y = 3.652722350991470E-03 Z = 8.204267364141583E-05
 VX=-6.574694102346000E-03 VY=-4.569445171330563E-03 VZ=-1.970619878685713E-04
2452745.000000000 = A.D. 2003-Apr-15 12:00:00.0000 TDB 
 X =-4.500580117439956E-03 Y =-2.582021575487769E-04 Z =-4.941243847257934E-05
 VX= 3.945914334071661E-04 VY=-7.883899002435411E-03 VZ=-2.283215091081597E-04
2452845.000000000 = A.D. 2003-Jul-24 12:00:00.0000 TDB 
 X =-2.324120139275290E-03 Y =-3.846208822465520E-03 Z =-1.352159629681146E-04
 VX= 6.815355801324269E-03 VY=-4.031705518241615E-03 VZ=-5.902723220645506E-05
2452945.000000000 = A.D. 2003-Nov-01 12:00:00.0000 TDB 
 X = 2.073796395274672E-03 Y =-3.932267381626445E-03 Z =-1.002220451657322E-04
 VX= 7.097002991838409E-03 VY= 3.699805405310064E-03 VZ= 1.721342356678316E-04
2453045.000000000 = A.D. 2004-Feb-09 12:00:00.0000 TDB 
 X = 4.508814952110569E-03 Y =-3.768056316865203E-04 Z = 2.572958048022872E-05
 VX= 6.862110169885080E-04 VY= 7.835027335613396E-03 VZ= 2.436074413606115E-04
2453145.000000000 = A.D. 2004-May-19 12:00:00.0000 TDB 
 X = 2.796942710077657E-03 Y = 3.490368598545118E-03 Z = 1.295081164149035E-04
 VX=-6.254082604412038E-03 VY= 4.917687366876290E-03 VZ= 1.011847131656885E-04
2453245.000000000 = A.D. 2004-Aug-27 12:00:00.0000 TDB 
 X =-1.580974486497082E-03 Y = 4.175655505177401E-03 Z = 1.175823705087732E-04
 VX=-7.477179225360502E-03 VY=-2.758309648823032E-03 VZ=-1.428514175087203E-04
2453345.000000000 = A.D. 2004-Dec-05 12:00:00.0000 TDB 
 X =-4.411459504559847E-03 Y = 1.017798531160212E-03 Z =-5.972921350285952E-07
 VX=-1.749279176221880E-03 VY=-7.662658508534008E-03 VZ=-2.540684274835047E-04
2453445.000000000 = A.D. 2005-Mar-15 12:00:00.0000 TDB 
 X =-3.201315881273435E-03 Y =-3.090236539644078E-03 Z =-1.212665130330726E-04
 VX= 5.590540728087227E-03 VY=-5.717278153140952E-03 VZ=-1.419487421234779E-04
2453545.000000000 = A.D. 2005-Jun-23 12:00:00.0000 TDB 
 X = 1.027249321314150E-03 Y =-4.365746794159272E-03 Z =-1.337328290056783E-04
 VX= 7.740335688167546E-03 VY= 1.740692436126575E-03 VZ= 1.095635395443670E-04
2453645.000000000 = A.D. 2005-Oct-01 12:00:00.0000 TDB 
 X = 4.214848156052151E-03 Y =-1.618644889482879E-03 Z =-2.447411639531802E-05
 VX= 2.780213563226159E-03 VY= 7.374218995716888E-03 VZ= 2.596794949237840E-04
2453745.000000000 = A.D. 2006-Jan-09 12:00:00.0000 TDB 
 X = 3.541283473609365E-03 Y = 2.683741930600905E-03 Z = 1.119359131788820E-04
 VX=-4.841504729150729E-03 VY= 6.378231395833191E-03 VZ= 1.793823915267042E-04
2453845.000000000 = A.D. 2006-Apr-19 12:00:00.0000 TDB 
 X =-4.292024884472988E-04 Y = 4.491233656507946E-03 Z = 1.479869302234602E-04
 VX=-7.856710060771325E-03 VY=-6.898569295669654E-04 VZ=-7.342214872771684E-05
